H1 CPF  1  DGF 2022 06 28 11  6791 larets     NONE      
H2   304206 5557    27944 2022 06 28 00 00 00 2022 07 05 00 00 00    30 1 1  0 0 0
H5  0.0650
H9
10 0 59763  64800.000000  0       3618460.998      -6016278.729       -730692.328
10 0 59763  64830.000000  0       3563823.485      -6017945.480       -952323.577
10 0 59763  64860.000000  0       3505570.140      -6013248.486      -1172979.796
10 0 59763  64890.000000  0       3443788.315      -6002177.372      -1392435.142
10 0 59763  64920.000000  0       3378569.016      -5984728.708      -1610465.052
10 0 59763  64950.000000  0       3310006.773      -5960906.021      -1826846.477
10 0 59763  64980.000000  0       3238199.512      -5930719.805      -2041358.124
10 0 59763  65010.000000  0       3163248.418      -5894187.524      -2253780.688
10 0 59763  65040.000000  0       3085257.797      -5851333.593      -2463897.083
10 0 59763  65070.000000  0       3004334.936      -5802189.368      -2671492.669
10 0 59763  65100.000000  0       2920589.955      -5746793.114      -2876355.481
10 0 59763  65130.000000  0       2834135.663      -5685189.974      -3078276.443
10 0 59763  65160.000000  0       2745087.405      -5617431.924      -3277049.593
10 0 59763  65190.000000  0       2653562.908      -5543577.723      -3472472.288
10 0 59763  65220.000000  0       2559682.128      -5463692.856      -3664345.420
10 0 59763  65250.000000  0       2463567.089      -5377849.462      -3852473.613
10 0 59763  65280.000000  0       2365341.729      -5286126.268      -4036665.424
10 0 59763  65310.000000  0       2265131.735      -5188608.500      -4216733.535
10 0 59763  65340.000000  0       2163064.387      -5085387.801      -4392494.944
10 0 59763  65370.000000  0       2059268.399      -4976562.128      -4563771.142
10 0 59763  65400.000000  0       1953873.750      -4862235.658      -4730388.299
10 0 59763  65430.000000  0       1847011.533      -4742518.671      -4892177.429
10 0 59763  65460.000000  0       1738813.783      -4617527.442      -5048974.562
10 0 59763  65490.000000  0       1629413.323      -4487384.117      -5200620.902
10 0 59763  65520.000000  0       1518943.596      -4352216.583      -5346962.987
10 0 59763  65550.000000  0       1407538.504      -4212158.334      -5487852.832
10 0 59763  65580.000000  0       1295332.247      -4067348.333      -5623148.077
10 0 59763  65610.000000  0       1182459.165      -3917930.866      -5752712.122
10 0 59763  65640.000000  0       1069053.569      -3764055.389      -5876414.256
10 0 59763  65670.000000  0        955249.593      -3605876.375      -5994129.781
10 0 59763  65700.000000  0        841181.027      -3443553.150      -6105740.133
10 0 59763  65730.000000  0        726981.167      -3277249.729      -6211132.989
10 0 59763  65760.000000  0        612782.658      -3107134.644      -6310202.376
10 0 59763  65790.000000  0        498717.344      -2933380.765      -6402848.765
10 0 59763  65820.000000  0        384916.113      -2756165.126      -6488979.169
10 0 59763  65850.000000  0        271508.756      -2575668.737      -6568507.219
10 0 59763  65880.000000  0        158623.816      -2392076.393      -6641353.252
10 0 59763  65910.000000  0         46388.446      -2205576.491      -6707444.376
10 0 59763  65940.000000  0        -65071.729      -2016360.827      -6766714.536
10 0 59763  65970.000000  0       -175632.752      -1824624.401      -6819104.577
10 0 59763  66000.000000  0       -285172.469      -1630565.219      -6864562.294
10 0 59763  66030.000000  0       -393570.657      -1434384.081      -6903042.480
10 0 59763  66060.000000  0       -500709.159      -1236284.377      -6934506.961
10 0 59763  66090.000000  0       -606472.004      -1036471.879      -6958924.636
10 0 59763  66120.000000  0       -710745.536       -835154.524      -6976271.494
10 0 59763  66150.000000  0       -813418.529       -632542.203      -6986530.639
10 0 59763  66180.000000  0       -914382.308       -428846.542      -6989692.301
10 0 59763  66210.000000  0      -1013530.862       -224280.684      -6985753.838
10 0 59763  66240.000000  0      -1110760.948        -19059.076      -6974719.737
10 0 59763  66270.000000  0      -1205972.204        186602.759      -6956601.613
10 0 59763  66300.000000  0      -1299067.244        392488.439      -6931418.190
10 0 59763  66330.000000  0      -1389951.761        598380.953      -6899195.290
10 0 59763  66360.000000  0      -1478534.618        804062.886      -6859965.802
10 0 59763  66390.000000  0      -1564727.938       1009316.646      -6813769.650
10 0 59763  66420.000000  0      -1648447.186       1213924.690      -6760653.751
10 0 59763  66450.000000  0      -1729611.258       1417669.749      -6700671.972
10 0 59763  66480.000000  0      -1808142.547       1620335.053      -6633885.080
10 0 59763  66510.000000  0      -1883967.030       1821704.557      -6560360.688
10 0 59763  66540.000000  0      -1957014.328       2021563.175      -6480173.196
10 0 59763  66570.000000  0      -2027217.780       2219697.008      -6393403.718
10 0 59763  66600.000000  0      -2094514.499       2415893.571      -6300140.007
10 0 59763  66630.000000  0      -2158845.429       2609942.025      -6200476.364
10 0 59763  66660.000000  0      -2220155.397       2801633.396      -6094513.554
10 0 59763  66690.000000  0      -2278393.156       2990760.801      -5982358.709
10 0 59763  66720.000000  0      -2333511.430       3177119.674      -5864125.229
10 0 59763  66750.000000  0      -2385466.953       3360507.983      -5739932.677
10 0 59763  66780.000000  0      -2434220.502       3540726.460      -5609906.661
10 0 59763  66810.000000  0      -2479736.925       3717578.812      -5474178.719
10 0 59763  66840.000000  0      -2521985.170       3890871.945      -5332886.187
10 0 59763  66870.000000  0      -2560938.298       4060416.174      -5186172.065
10 0 59763  66900.000000  0      -2596573.502       4226025.436      -5034184.884
10 0 59763  66930.000000  0      -2628872.113       4387517.498      -4877078.554
10 0 59763  66960.000000  0      -2657819.605       4544714.160      -4715012.216
10 0 59763  66990.000000  0      -2683405.595       4697441.461      -4548150.084
10 0 59763  67020.000000  0      -2705623.837       4845529.868      -4376661.283
10 0 59763  67050.000000  0      -2724472.207       4988814.476      -4200719.679
10 0 59763  67080.000000  0      -2739952.691       5127135.188      -4020503.708
10 0 59763  67110.000000  0      -2752071.362       5260336.899      -3836196.199
10 0 59763  67140.000000  0      -2760838.355       5388269.676      -3647984.199
10 0 59763  67170.000000  0      -2766267.835       5510788.934      -3456058.784
10 0 59763  67200.000000  0      -2768377.965       5627755.610      -3260614.871
10 0 59763  67230.000000  0      -2767190.865       5739036.325      -3061851.017
10 0 59763  67260.000000  0      -2762732.567       5844503.542      -2859969.225
10 0 59763  67290.000000  0      -2755032.969       5944035.725      -2655174.734
10 0 59763  67320.000000  0      -2744125.775       6037517.480      -2447675.808
10 0 59763  67350.000000  0      -2730048.441       6124839.701      -2237683.524
10 0 59763  67380.000000  0      -2712842.104       6205899.695      -2025411.550
10 0 59763  67410.000000  0      -2692551.519       6280601.305      -1811075.931
10 0 59763  67440.000000  0      -2669224.981       6348855.030      -1594894.863
10 0 59763  67470.000000  0      -2642914.257       6410578.134      -1377088.475
10 0 59763  67500.000000  0      -2613674.497       6465694.750      -1157878.599
10 0 59763  67530.000000  0      -2581564.155       6514135.973       -937488.545
10 0 59763  67560.000000  0      -2546644.900       6555839.956       -716142.875
10 0 59763  67590.000000  0      -2508981.521       6590751.997       -494067.169
10 0 59763  67620.000000  0      -2468641.839       6618824.613       -271487.786
10 0 59763  67650.000000  0      -2425696.601       6640017.605        -48631.623
10 0 59763  67680.000000  0      -2380219.378       6654298.118        174274.123
10 0 59763  67710.000000  0      -2332286.453       6661640.682        397002.197
10 0 59763  67740.000000  0      -2281976.714       6662027.251        619325.528
10 0 59763  67770.000000  0      -2229371.537       6655447.230        841017.464
10 0 59763  67800.000000  0      -2174554.668       6641897.491       1061852.009
10 0 59763  67830.000000  0      -2117612.101       6621382.387       1281604.063
10 0 59763  67860.000000  0      -2058631.963       6593913.749       1500049.650
10 0 59763  67890.000000  0      -1997704.382       6559510.884       1716966.152
10 0 59763  67920.000000  0      -1934921.366       6518200.560       1932132.541
10 0 59763  67950.000000  0      -1870376.672       6470016.983       2145329.607
10 0 59763  67980.000000  0      -1804165.678       6415001.762       2356340.185
10 0 59763  68010.000000  0      -1736385.252       6353203.871       2564949.378
10 0 59763  68040.000000  0      -1667133.620       6284679.600       2770944.776
10 0 59763  68070.000000  0      -1596510.233       6209492.501       2974116.673
10 0 59763  68100.000000  0      -1524615.634       6127713.323       3174258.283
10 0 59763  68130.000000  0      -1451551.320       6039419.942       3371165.954
10 0 59763  68160.000000  0      -1377419.613       5944697.281       3564639.372
10 0 59763  68190.000000  0      -1302323.521       5843637.219       3754481.767
10 0 59763  68220.000000  0      -1226366.604       5736338.500       3940500.112
10 0 59763  68250.000000  0      -1149652.841       5622906.629       4122505.323
10 0 59763  68280.000000  0      -1072286.492       5503453.764       4300312.453
10 0 59763  68310.000000  0       -994371.956       5378098.589       4473740.880
10 0 59763  68340.000000  0       -916013.640       5246966.189       4642614.486
10 0 59763  68370.000000  0       -837315.817       5110187.909       4806761.830
99
